ONEWEB-0222             
1 48775U 21045J   23059.15336071  .00000014  00000+0  26936-5 0  9993
2 48775  87.9088 139.1484 0001593 114.4108 245.7188 13.15544156 85968
ONEWEB-0222             
1 48775U 21045J   23059.60970721 -.00000075  00000+0 -23367-3 0  9991
2 48775  87.9089 139.0579 0001594 114.7509 245.3787 13.15543830 87143
ONEWEB-0222             
1 48775U 21045J   23059.91393697  .00000158  00000+0  38519-3 0  9991
2 48775  87.9088 138.9975 0001582 113.7813 246.3483 13.15544213 86064
ONEWEB-0222             
1 48775U 21045J   23060.90268648  .00000141  00000+0  33989-3 0  9997
2 48775  87.9085 138.8013 0001605 113.5543 246.5756 13.15544074 86191
ONEWEB-0222             
1 48775U 21045J   23061.13085911  .00000181  00000+0  44580-3 0  9996
2 48775  87.9085 138.7561 0001611 113.6102 246.5198 13.15544301 87348
ONEWEB-0222             
1 48775U 21045J   23061.58720527  .00000156  00000+0  37981-3 0  9993
2 48775  87.9084 138.6654 0001573 112.7042 247.4255 13.15543869 86283
ONEWEB-0222             
1 48775U 21045J   23062.27172306  .00000157  00000+0  38208-3 0  9990
2 48775  87.9082 138.5297 0001604 113.1274 247.0026 13.15544411 86376
ONEWEB-0222             
1 48775U 21045J   23062.27172306  .00000157  00000+0  38208-3 0  9990
2 48775  87.9082 138.5297 0001604 113.1274 247.0026 13.15544411 87490
